STARLINK-2022           
1 47643U 21012Z   24042.60151404  .00004770  00000+0  33894-3 0  9990
2 47643  53.0530 210.3209 0001312  90.5172 269.5967 15.06398154166155
